NORAD_CAT_ID,OBJECT_NAME,OBJECT_TYPE,EPOCH,MEAN_MOTION,ECCENTRICITY,INCLINATION,RA_OF_ASC_NODE,ARG_OF_PERICENTER,MEAN_ANOMALY,BSTAR,MEAN_MOTION_DOT,MEAN_MOTION_DDOT,TLE_LINE0,TLE_LINE1,TLE_LINE2,SEMIMAJOR_AXIS,PERIOD,APOGEE,PERIGEE,DECAYED
55271.0,STARLINK-5306,PAYLOAD,2023-02-04 10:00:00,15.75117675,0.0003681,70.0001,24.3101,258.5948,8.2657,-0.0061045,-0.00830954,0.0,0 STARLINK-5306,1 55271U 23010C   23035.41667824 -.00830954  00000-0 -61045-2 0  9996,2 55271  70.0001  24.3101 0003681 258.5948   8.2657 15.75117675  3006,6722.433,91.422,346.773,341.824,0.0
55271.0,STARLINK-5306,PAYLOAD,2023-02-04 14:00:01,15.74821749,0.000352,69.9994,23.8376,262.7109,228.8394,-0.0062307,-0.00836603,0.0,0 STARLINK-5306,1 55271U 23010C   23035.58334491 -.00836603  00000-0 -62307-2 0  9994,2 55271  69.9994  23.8376 0003520 262.7109 228.8394 15.74821749  1302,6723.275,91.439,347.507,342.774,0.0
55271.0,STARLINK-5306,PAYLOAD,2023-02-04 22:00:00,15.74221674,0.000348,70.0001,22.8944,263.5473,316.8462,-0.006367,-0.00833191,0.0,0 STARLINK-5306,1 55271U 23010C   23035.91667824 -.00833191  00000-0 -63670-2 0  9993,2 55271  70.0001  22.8944 0003480 263.5473 316.8462 15.74221674  1307,6724.984,91.474,349.189,344.509,0.0
55271.0,STARLINK-5306,PAYLOAD,2023-02-05 14:00:01,15.73037597,0.0003703,69.9953,21.0014,271.5209,124.5073,-0.0069501,-0.00861376,0.0,0 STARLINK-5306,1 55271U 23010C   23036.58335648 -.00861376  00000-0 -69501-2 0  9998,2 55271  69.9953  21.0014 0003703 271.5209 124.5073 15.73037597  1303,6728.358,91.543,352.715,347.732,0.0
55271.0,STARLINK-5306,PAYLOAD,2023-02-05 16:00:00,15.728595,0.0003579,69.9955,20.7659,270.6937,237.0177,-0.0065672,-0.00812428,0.0,0 STARLINK-5306,1 55271U 23010C   23036.66667824 -.00812428  00000-0 -65672-2 0  9990,2 55271  69.9955  20.7659 0003579 270.6937 237.0177 15.72859500  3206,6728.866,91.553,353.139,348.323,0.0
55271.0,STARLINK-5306,PAYLOAD,2023-02-05 22:00:00,15.72450297,0.0003491,69.996,20.0603,268.0387,214.6051,-0.0070662,-0.00854617,0.0,0 STARLINK-5306,1 55271U 23010C   23036.91667824 -.00854617  00000-0 -70662-2 0  9999,2 55271  69.9960  20.0603 0003491 268.0387 214.6051 15.72450297  1308,6730.033,91.577,354.248,349.549,0.0
55271.0,STARLINK-5306,PAYLOAD,2023-02-06 06:00:00,15.71807874,0.0003579,69.9961,19.1202,272.7462,295.8938,-0.0067949,-0.00804504,0.0,0 STARLINK-5306,1 55271U 23010C   23037.25001157 -.00804504  00000-0 -67949-2 0  9992,2 55271  69.9961  19.1202 0003579 272.7462 295.8938 15.71807874  3297,6731.867,91.614,356.141,351.323,0.0
55271.0,STARLINK-5306,PAYLOAD,2023-02-06 14:00:01,15.71248358,0.0003598,69.9957,18.1806,268.8904,24.9929,-0.0075624,-0.00867778,0.0,0 STARLINK-5306,1 55271U 23010C   23037.58334491 -.00867778  00000-0 -75624-2 0  9999,2 55271  69.9957  18.1806 0003598 268.8904  24.9929 15.71248358  1306,6733.465,91.647,357.753,352.907,0.0
55271.0,STARLINK-5306,PAYLOAD,2023-02-06 22:00:00,15.70633206,0.0003639,69.9966,17.2421,264.1163,114.3043,-0.0071588,-0.0080643,0.0,0 STARLINK-5306,1 55271U 23010C   23037.91667824 -.00806430  00000-0 -71588-2 0  9998,2 55271  69.9966  17.2421 0003639 264.1163 114.3043 15.70633206  1301,6735.223,91.683,359.539,354.637,0.0
55271.0,STARLINK-5306,PAYLOAD,2023-02-07 00:00:00,15.70437784,0.0003578,69.997,17.0074,266.8432,222.6121,-0.0060782,-0.00688721,0.0,0 STARLINK-5306,1 55271U 23010C   23038.00001157 -.00688721  00000-0 -60782-2 0  9995,2 55271  69.9970  17.0074 0003578 266.8432 222.6121 15.70437784  3415,6735.782,91.694,360.057,355.237,0.0
55271.0,STARLINK-5306,PAYLOAD,2023-02-07 08:00:01,15.69866892,0.0003357,69.9982,16.0699,271.9403,301.1639,0.00086173,0.00104454,0.0,0 STARLINK-5306,1 55271U 23010C   23038.33334491  .00104454  00000-0  86173-3 0  9998,2 55271  69.9982  16.0699 0003357 271.9403 301.1639 15.69866892  3466,6737.415,91.728,361.542,357.018,0.0
55271.0,STARLINK-5306,PAYLOAD,2023-02-07 14:00:01,15.6995938,0.0003278,69.999,15.3668,269.2348,276.3372,-0.00053452,-0.00064089,0.0,0 STARLINK-5306,1 55271U 23010C   23038.58334491 -.00064089  00000-0 -53452-3 0  9990,2 55271  69.9990  15.3668 0003278 269.2348 276.3372 15.69959380  1306,6737.15,91.722,361.224,356.807,0.0
55271.0,STARLINK-5306,PAYLOAD,2023-02-07 22:00:00,15.69949832,0.0003401,69.9999,14.4294,262.5055,6.403,-8.9298e-05,-0.00010948,0.0,0 STARLINK-5306,1 55271U 23010C   23038.91667824 -.00010948  00000-0 -89298-4 0  9999,2 55271  69.9999  14.4294 0003401 262.5055   6.4030 15.69949832  1303,6737.178,91.723,361.334,356.751,0.0
55271.0,STARLINK-5306,PAYLOAD,2023-02-08 00:00:00,15.69982428,0.0003427,70.0002,14.1951,264.5501,115.1893,-0.00070462,-0.00084297,0.0,0 STARLINK-5306,1 55271U 23010C   23039.00001157 -.00084297  00000-0 -70462-3 0  9991,2 55271  70.0002  14.1951 0003427 264.5501 115.1893 15.69982428  3567,6737.084,91.721,361.258,356.64,0.0
55271.0,STARLINK-5306,PAYLOAD,2023-02-08 14:00:01,15.69901602,0.0003388,70.0001,12.5549,272.2727,163.3344,-0.00017596,-0.00021297,0.0,0 STARLINK-5306,1 55271U 23010C   23039.58334491 -.00021297  00000-0 -17596-3 0  9994,2 55271  70.0001  12.5549 0003388 272.2727 163.3344 15.69901602  1304,6737.316,91.725,361.463,356.898,0.0
55271.0,STARLINK-5306,PAYLOAD,2023-02-08 16:00:00,15.69863325,0.0003382,70.0004,12.3205,270.4725,275.971,0.00054587,0.00065774,0.0,0 STARLINK-5306,1 55271U 23010C   23039.66667824  .00065774  00000-0  54587-3 0  9999,2 55271  70.0004  12.3205 0003382 270.4725 275.9710 15.69863325  3674,6737.425,91.728,361.569,357.011,0.0
55271.0,STARLINK-5306,PAYLOAD,2023-02-08 22:00:00,15.69933802,0.0003357,70.0006,11.618,266.3517,252.5477,0.00026032,0.00031218,0.0,0 STARLINK-5306,1 55271U 23010C   23039.91667824  .00031218  00000-0  26032-3 0  9997,2 55271  70.0006  11.6180 0003357 266.3517 252.5477 15.69933802  1302,6737.223,91.724,361.35,356.827,0.0
55271.0,STARLINK-5306,PAYLOAD,2023-02-09 12:00:00,15.7000606,0.0003365,70.0,9.9776,271.09,303.7141,-0.00010454,-0.00012807,0.0,0 STARLINK-5306,1 55271U 23010C   23040.50001157 -.00012807  00000-0 -10454-3 0  9991,2 55271  70.0000   9.9776 0003365 271.0900 303.7141 15.70006060  1301,6737.017,91.719,361.149,356.615,0.0
55271.0,STARLINK-5306,PAYLOAD,2023-02-09 22:00:00,15.6994013,0.0003541,70.0006,8.8062,266.8296,142.0939,-0.00010093,-0.00012339,0.0,0 STARLINK-5306,1 55271U 23010C   23040.91667824 -.00012339  00000-0 -10093-3 0  9994,2 55271  70.0006   8.8062 0003541 266.8296 142.0939 15.69940130  3864,6737.205,91.723,361.456,356.685,0.0
55271.0,STARLINK-5306,PAYLOAD,2023-02-10 03:54:34,15.69939425,0.0003615,70.0,8.1144,266.1503,93.928,0.0001175,0.00013949,0.0,0 STARLINK-5306,1 55271U 23010C   23041.16289463  .00013949  00000-0  11750-3 0  9998,2 55271  70.0000   8.1144 0003615 266.1503  93.9280 15.69939425  4227,6737.207,91.723,361.508,356.637,0.0
55271.0,STARLINK-5306,PAYLOAD,2023-02-10 10:01:34,15.69954601,0.000361,70.0,7.3973,265.0266,95.0518,0.00018709,0.00022372,0.0,0 STARLINK-5306,1 55271U 23010C   23041.41775840  .00022372  00000-0  18709-3 0  9996,2 55271  70.0000   7.3973 0003610 265.0266  95.0518 15.69954601  3945,6737.164,91.722,361.461,356.597,0.0
55271.0,STARLINK-5306,PAYLOAD,2023-02-11 04:22:36,15.69919049,0.0004079,70.0001,5.2466,268.6928,91.38,0.00020022,0.00023929,0.0,0 STARLINK-5306,1 55271U 23010C   23042.18236944  .00023929  00000-0  20022-3 0  9998,2 55271  70.0001   5.2466 0004079 268.6928  91.3800 15.69919049  4068,6737.266,91.724,361.879,356.382,0.0
55271.0,STARLINK-5306,PAYLOAD,2023-02-11 08:57:51,15.69934907,0.0003592,70.0,4.7078,265.6912,94.3874,0.00029464,0.00035382,0.0,0 STARLINK-5306,1 55271U 23010C   23042.37351737  .00035382  00000-0  29464-3 0  9992,2 55271  70.0000   4.7078 0003592 265.6912  94.3874 15.69934907  4096,6737.22,91.724,361.505,356.665,0.0
55271.0,STARLINK-5306,PAYLOAD,2023-02-12 03:18:53,15.69932926,0.0004059,70.0004,2.561,252.1752,107.9001,0.00018197,0.00021735,0.0,0 STARLINK-5306,1 55271U 23010C   23043.13812130  .00021735  00000-0  18197-3 0  9994,2 55271  70.0004   2.5610 0004059 252.1752 107.9001 15.69932926  4216,6737.226,91.724,361.826,356.356,0.0
55271.0,STARLINK-5306,PAYLOAD,2023-02-12 14:01:09,15.69946253,0.0003761,70.0002,1.3067,254.5936,105.4845,0.0001711,0.00020431,0.0,0 STARLINK-5306,1 55271U 23010C   23043.58413393  .00020431  00000-0  17110-3 0  9997,2 55271  70.0002   1.3067 0003761 254.5936 105.4845 15.69946253  4606,6737.188,91.723,361.587,356.519,0.0
55271.0,STARLINK-5306,PAYLOAD,2023-02-12 20:08:09,15.69944441,0.0003236,70.0011,0.5913,245.9811,114.1046,0.00013419,0.00015966,0.0,0 STARLINK-5306,1 55271U 23010C   23043.83899996  .00015966  00000-0  13419-3 0  9997,2 55271  70.0011   0.5913 0003236 245.9811 114.1046 15.69944441  4326,6737.193,91.723,361.238,356.878,0.0
55271.0,STARLINK-5306,PAYLOAD,2023-02-13 03:46:55,15.69934086,0.0003322,70.001,359.6955,253.5203,106.5628,4.0002e-05,4.602e-05,0.0,0 STARLINK-5306,1 55271U 23010C   23044.15758320  .00004602  00000-0  40002-4 0  9992,2 55271  70.0010 359.6955 0003322 253.5203 106.5628 15.69934086  4375,6737.223,91.724,361.326,356.849,0.0
55271.0,STARLINK-5306,PAYLOAD,2023-02-13 08:22:10,15.6992904,0.000337,70.0025,359.159,251.7904,108.2925,2.2019e-05,2.436e-05,0.0,0 STARLINK-5306,1 55271U 23010C   23044.34873419  .00002436  00000-0  22019-4 0  9991,2 55271  70.0025 359.1590 0003370 251.7904 108.2925 15.69929040  4724,6737.237,91.724,361.372,356.832,0.0
55271.0,STARLINK-5306,PAYLOAD,2023-02-13 14:29:11,15.69920389,0.0003038,70.0012,358.4396,259.0988,100.9866,-8.6727e-06,-1.255e-05,0.0,0 STARLINK-5306,1 55271U 23010C   23044.60360524 -.00001255  00000-0 -86727-5 0  9995,2 55271  70.0012 358.4396 0003038 259.0988 100.9866 15.69920389  4449,6737.262,91.724,361.174,357.08,0.0
55271.0,STARLINK-5306,PAYLOAD,2023-02-15 06:14:45,15.6990828,0.0003348,70.0003,353.7831,267.7077,92.3735,-3.9458e-05,-4.951e-05,0.0,0 STARLINK-5306,1 55271U 23010C   23046.26024445 -.00004951  00000-0 -39458-4 0  9992,2 55271  70.0003 353.7831 0003348 267.7077  92.3735 15.69908280  4704,6737.296,91.725,361.417,356.906,0.0
